[{"OBJECT_NAME":"STARLINK-35079","OBJECT_ID":"2025-210AD","EPOCH":"2026-03-09T21:58:45.750720","MEAN_MOTION":15.3021431,"ECCENTRICITY":8.524e-5,"INCLINATION":53.1613,"RA_OF_ASC_NODE":306.1667,"ARG_OF_PERICENTER":91.5703,"MEAN_ANOMALY":268.5395,"EPHEMERIS_TYPE":0,"CLASSIFICATION_TYPE":"U","NORAD_CAT_ID":65649,"ELEMENT_SET_NO":999,"REV_AT_EPOCH":2776,"BSTAR":0.0011866069,"MEAN_MOTION_DOT":0.00034966,"MEAN_MOTION_DDOT":0},{"OBJECT_NAME":"CZ-6A DEB","OBJECT_ID":"2022-151SD","EPOCH":"2026-03-09T21:25:15.700512","MEAN_MOTION":15.24469357,"ECCENTRICITY":0.00248717,"INCLINATION":98.6538,"RA_OF_ASC_NODE":157.5128,"ARG_OF_PERICENTER":174.047,"MEAN_ANOMALY":186.1065,"EPHEMERIS_TYPE":0,"CLASSIFICATION_TYPE":"U","NORAD_CAT_ID":54940,"ELEMENT_SET_NO":999,"REV_AT_EPOCH":17680,"BSTAR":0.0087519903,"MEAN_MOTION_DOT":0.00223015,"MEAN_MOTION_DDOT":0}]
